NORAD_CAT_ID,OBJECT_NAME,OBJECT_TYPE,EPOCH,MEAN_MOTION,ECCENTRICITY,INCLINATION,RA_OF_ASC_NODE,ARG_OF_PERICENTER,MEAN_ANOMALY,BSTAR,MEAN_MOTION_DOT,MEAN_MOTION_DDOT,TLE_LINE0,TLE_LINE1,TLE_LINE2,SEMIMAJOR_AXIS,PERIOD,APOGEE,PERIGEE,DECAYED
52559.0,STARLINK-3953,PAYLOAD,2023-10-06 21:28:09,15.08837907,0.0001429,53.2148,131.3034,95.7114,264.4041,0.00019789,2.863e-05,0.0,0 STARLINK-3953,1 52559U 22051AC  23279.89455644  .00002863  00000-0  19789-3 0  9990,2 52559  53.2148 131.3034 0001429  95.7114 264.4041 15.08837907 78003,6917.887,95.438,540.74,538.763,0.0
52559.0,STARLINK-3953,PAYLOAD,2023-10-06 23:03:32,15.08842541,0.0001456,53.2164,131.006,86.711,273.4049,0.00036111,5.464e-05,0.0,0 STARLINK-3953,1 52559U 22051AC  23279.96079573  .00005464  00000-0  36111-3 0  9999,2 52559  53.2164 131.0060 0001456  86.7110 273.4049 15.08842541 78012,6917.873,95.437,540.745,538.73,0.0
52559.0,STARLINK-3953,PAYLOAD,2023-10-07 21:18:55,15.0882783,0.0001408,53.2153,126.8413,80.2719,279.8432,-0.00084709,-0.00013739,0.0,0 STARLINK-3953,1 52559U 22051AC  23280.88814689 -.00013739  00000-0 -84709-3 0  9999,2 52559  53.2153 126.8413 0001408  80.2719 279.8432 15.08827830 78228,6917.918,95.438,540.757,538.809,0.0
52559.0,STARLINK-3953,PAYLOAD,2023-10-08 13:12:47,15.08837054,0.0001448,53.2159,123.8699,79.3876,280.7279,9.9756e-05,1.3e-05,0.0,0 STARLINK-3953,1 52559U 22051AC  23281.55055217  .00001300  00000-0  99756-4 0  9996,2 52559  53.2159 123.8699 0001448  79.3876 280.7279 15.08837054 78256,6917.889,95.438,540.756,538.753,0.0
52559.0,STARLINK-3953,PAYLOAD,2023-10-08 17:58:57,15.08840648,0.0001417,53.2159,122.9773,85.8114,274.304,0.0010651,0.00016704,0.0,0 STARLINK-3953,1 52559U 22051AC  23281.74927543  .00016704  00000-0  10651-2 0  9996,2 52559  53.2159 122.9773 0001417  85.8114 274.3040 15.08840648 78351,6917.878,95.438,540.724,538.763,0.0
52559.0,STARLINK-3953,PAYLOAD,2023-10-08 21:09:43,15.08845499,0.000142,53.2158,122.3817,85.3599,274.7555,0.0010902,0.00017108,0.0,0 STARLINK-3953,1 52559U 22051AC  23281.88175488  .00017108  00000-0  10902-2 0  9992,2 52559  53.2158 122.3817 0001420  85.3599 274.7555 15.08845499 78308,6917.864,95.437,540.711,538.746,0.0
52559.0,STARLINK-3953,PAYLOAD,2023-10-09 06:42:02,15.08839684,0.0001711,53.2154,120.5983,95.7434,264.3753,0.00062548,9.68e-05,0.0,0 STARLINK-3953,1 52559U 22051AC  23282.27919751  .00009680  00000-0  62548-3 0  9995,2 52559  53.2154 120.5983 0001711  95.7434 264.3753 15.08839684 78432,6917.881,95.438,540.93,538.563,0.0
52559.0,STARLINK-3953,PAYLOAD,2023-10-09 13:03:35,15.08835181,0.0001709,53.2156,119.4093,84.8049,275.3138,0.00019592,2.831e-05,0.0,0 STARLINK-3953,1 52559U 22051AC  23282.54415905  .00002831  00000-0  19592-3 0  9999,2 52559  53.2156 119.4093 0001709  84.8049 275.3138 15.08835181 78405,6917.895,95.438,540.942,538.578,0.0
52559.0,STARLINK-3953,PAYLOAD,2023-10-09 19:25:08,15.08835014,0.0001584,53.2156,118.2205,78.9145,281.2025,0.00023853,3.51e-05,0.0,0 STARLINK-3953,1 52559U 22051AC  23282.80912124  .00003510  00000-0  23853-3 0  9993,2 52559  53.2156 118.2205 0001584  78.9145 281.2025 15.08835014 78517,6917.896,95.438,540.856,538.665,0.0
52559.0,STARLINK-3953,PAYLOAD,2023-10-10 12:54:22,15.08848278,0.0001345,53.2151,114.9472,89.9384,270.1763,0.00021507,3.137e-05,0.0,0 STARLINK-3953,1 52559U 22051AC  23283.53775669  .00003137  00000-0  21507-3 0  9994,2 52559  53.2151 114.9472 0001345  89.9384 270.1763 15.08848278 78559,6917.855,95.437,540.651,538.79,0.0
52559.0,STARLINK-3953,PAYLOAD,2023-10-10 19:15:54,15.0885068,0.0001298,53.2151,113.7579,83.2909,276.8231,0.00041783,6.37e-05,0.0,0 STARLINK-3953,1 52559U 22051AC  23283.80271662  .00006370  00000-0  41783-3 0  9998,2 52559  53.2151 113.7579 0001298  83.2909 276.8231 15.08850680 78598,6917.848,95.437,540.611,538.815,0.0
52559.0,STARLINK-3953,PAYLOAD,2023-10-10 22:26:40,15.08854006,0.0001363,53.2154,113.1631,84.0952,276.0196,0.00049132,7.543e-05,0.0,0 STARLINK-3953,1 52559U 22051AC  23283.93519525  .00007543  00000-0  49132-3 0  9994,2 52559  53.2154 113.1631 0001363  84.0952 276.0196 15.08854006 78682,6917.838,95.437,540.645,538.76,0.0
52559.0,STARLINK-3953,PAYLOAD,2023-10-11 12:45:09,15.08842837,0.0001417,53.215,110.4864,90.5023,269.6131,0.00014185,1.97e-05,0.0,0 STARLINK-3953,1 52559U 22051AC  23284.53135791  .00001970  00000-0  14185-3 0  9998,2 52559  53.2150 110.4864 0001417  90.5023 269.6131 15.08842837 78773,6917.872,95.437,540.717,538.756,0.0
52559.0,STARLINK-3953,PAYLOAD,2023-10-12 12:35:56,15.08844136,0.0001344,53.2158,106.0265,86.5446,273.57,0.00011695,1.574e-05,0.0,0 STARLINK-3953,1 52559U 22051AC  23285.52495687  .00001574  00000-0  11695-3 0  9994,2 52559  53.2158 106.0265 0001344  86.5446 273.5700 15.08844136 78859,6917.868,95.437,540.663,538.803,0.0
52559.0,STARLINK-3953,PAYLOAD,2023-10-12 18:57:28,15.08847658,0.0001326,53.2159,104.8363,89.8663,270.2481,0.00018357,2.635e-05,0.0,0 STARLINK-3953,1 52559U 22051AC  23285.78991498  .00002635  00000-0  18357-3 0  9994,2 52559  53.2159 104.8363 0001326  89.8663 270.2481 15.08847658 78966,6917.857,95.437,540.639,538.805,0.0
52559.0,STARLINK-3953,PAYLOAD,2023-10-13 04:29:47,15.08843091,0.0001293,53.216,103.0522,89.1995,270.9146,7.9652e-05,9.8e-06,0.0,0 STARLINK-3953,1 52559U 22051AC  23286.18735582  .00000980  00000-0  79652-4 0  9996,2 52559  53.2160 103.0522 0001293  89.1995 270.9146 15.08843091 78951,6917.871,95.437,540.63,538.841,0.0
52559.0,STARLINK-3953,PAYLOAD,2023-10-13 18:48:16,15.08839401,0.0001352,53.2168,100.3773,92.976,267.1387,6.8991e-05,8.1e-06,0.0,0 STARLINK-3953,1 52559U 22051AC  23286.78351852  .00000810  00000-0  68991-4 0  9992,2 52559  53.2168 100.3773 0001352  92.9760 267.1387 15.08839401 79119,6917.882,95.438,540.683,538.812,0.0
52559.0,STARLINK-3953,PAYLOAD,2023-10-14 12:17:30,15.08836454,0.0001369,53.2165,97.1035,83.7995,276.3153,8.7257e-06,-1.49e-06,0.0,0 STARLINK-3953,1 52559U 22051AC  23287.51216066 -.00000149  00000-0  87257-5 0  9994,2 52559  53.2165  97.1035 0001369  83.7995 276.3153 15.08836454 79158,6917.891,95.438,540.703,538.809,0.0
52559.0,STARLINK-3953,PAYLOAD,2023-10-14 18:39:02,15.0884568,0.0001329,53.2155,95.9145,86.0609,274.0535,0.0001257,1.713e-05,0.0,0 STARLINK-3953,1 52559U 22051AC  23287.77711619  .00001713  00000-0  12570-3 0  9997,2 52559  53.2155  95.9145 0001329  86.0609 274.0535 15.08845680 79193,6917.863,95.437,540.647,538.809,0.0
52559.0,STARLINK-3953,PAYLOAD,2023-10-15 04:11:21,15.08839628,0.0001197,53.2156,94.1308,88.3223,271.7906,5.1718e-05,5.35e-06,0.0,0 STARLINK-3953,1 52559U 22051AC  23288.17455833  .00000535  00000-0  51718-4 0  9994,2 52559  53.2156  94.1308 0001197  88.3223 271.7906 15.08839628 79322,6917.882,95.438,540.575,538.918,0.0
52559.0,STARLINK-3953,PAYLOAD,2023-10-15 13:43:41,15.08833428,0.0001243,53.2156,92.3467,83.5751,276.5383,3.1462e-05,2.13e-06,0.0,0 STARLINK-3953,1 52559U 22051AC  23288.57200308  .00000213  00000-0  31462-4 0  9990,2 52559  53.2156  92.3467 0001243  83.5751 276.5383 15.08833428 79316,6917.9,95.438,540.625,538.906,0.0
52559.0,STARLINK-3953,PAYLOAD,2023-10-15 18:29:50,15.08840486,0.0001238,53.2171,91.4541,82.1723,277.941,7.3134e-05,8.76e-06,0.0,0 STARLINK-3953,1 52559U 22051AC  23288.77072248  .00000876  00000-0  73134-4 0  9999,2 52559  53.2171  91.4541 0001238  82.1723 277.9410 15.08840486 79345,6917.879,95.438,540.6,538.887,0.0
52559.0,STARLINK-3953,PAYLOAD,2023-10-16 04:02:09,15.0884347,0.0001266,53.2173,89.6695,77.8512,282.2622,0.00010065,1.314e-05,0.0,0 STARLINK-3953,1 52559U 22051AC  23289.16815979  .00001314  00000-0  10065-3 0  9990,2 52559  53.2173  89.6695 0001266  77.8512 282.2622 15.08843470 79401,6917.87,95.437,540.611,538.859,0.0
52559.0,STARLINK-3953,PAYLOAD,2023-10-16 16:45:14,15.08841128,0.0001279,53.2168,87.2916,82.7373,277.3764,3.8773e-05,3.29e-06,0.0,0 STARLINK-3953,1 52559U 22051AC  23289.69808344  .00000329  00000-0  38773-4 0  9998,2 52559  53.2168  87.2916 0001279  82.7373 277.3764 15.08841128 79555,6917.877,95.437,540.627,538.857,0.0
52559.0,STARLINK-3953,PAYLOAD,2023-10-16 19:56:00,15.08845592,0.0001394,53.2176,86.6949,82.3851,277.73,8.0259e-05,9.9e-06,0.0,0 STARLINK-3953,1 52559U 22051AC  23289.83055954  .00000990  00000-0  80259-4 0  9995,2 52559  53.2176  86.6949 0001394  82.3851 277.7300 15.08845592 79502,6917.863,95.437,540.693,538.764,0.0
52559.0,STARLINK-3953,PAYLOAD,2023-10-17 10:14:28,15.0884528,0.0001719,53.2188,84.0202,83.0286,277.0902,1.2583e-05,-8.8e-07,0.0,0 STARLINK-3953,1 52559U 22051AC  23290.42672223 -.00000088  00000-0  12583-4 0  9990,2 52559  53.2188  84.0202 0001719  83.0286 277.0902 15.08845280 79594,6917.864,95.437,540.918,538.54,0.0
52559.0,STARLINK-3953,PAYLOAD,2023-10-17 16:36:01,15.08844407,0.0001502,53.2171,82.8312,84.8633,275.2531,0.00013092,1.796e-05,0.0,0 STARLINK-3953,1 52559U 22051AC  23290.69167909  .00001796  00000-0  13092-3 0  9990,2 52559  53.2171  82.8312 0001502  84.8633 275.2531 15.08844407 79632,6917.867,95.437,540.771,538.693,0.0
52559.0,STARLINK-3953,PAYLOAD,2023-10-18 03:43:42,15.08845488,0.000136,53.217,80.7505,80.1637,279.9509,7.3902e-05,8.89e-06,0.0,0 STARLINK-3953,1 52559U 22051AC  23291.15535846  .00000889  00000-0  73902-4 0  9990,2 52559  53.2170  80.7505 0001360  80.1637 279.9509 15.08845488 79778,6917.864,95.437,540.669,538.788,0.0
52559.0,STARLINK-3953,PAYLOAD,2023-10-18 16:26:48,15.08838084,0.0001261,53.2173,78.3701,87.689,272.4247,4.6261e-05,4.48e-06,0.0,0 STARLINK-3953,1 52559U 22051AC  23291.68528358  .00000448  00000-0  46261-4 0  9997,2 52559  53.2173  78.3701 0001261  87.6890 272.4247 15.08838084 79855,6917.886,95.438,540.624,538.879,0.0
52559.0,STARLINK-3953,PAYLOAD,2023-10-19 09:56:02,15.08847956,0.0001593,53.2162,75.0991,89.6681,270.4494,4.0358e-05,3.54e-06,0.0,0 STARLINK-3953,1 52559U 22051AC  23292.41391718  .00000354  00000-0  40358-4 0  9994,2 52559  53.2162  75.0991 0001593  89.6681 270.4494 15.08847956 79968,6917.856,95.437,540.823,538.619,0.0
